KUIPER-00008            
1 63724U 25088A   26023.44707530  .00009942  00000+0  82843-3 0  9999
2 63724  51.8903 293.2071 0007476 309.6954  50.3357 14.99147191 41277
KUIPER-00009            
1 63725U 25088B   26024.07836276  .00011243  00000+0  14990-2 0  9994
2 63725  51.9030 303.9030 0009786 315.6960  44.3218 14.79975722 41179
KUIPER-00010            
1 63726U 25088C   26024.00280858  .00002784  00000+0  39444-3 0  9999
2 63726  51.9002 280.6940 0000469  88.2695 271.8321 14.79885212 41117
KUIPER-00011            
1 63727U 25088D   26024.02843795  .00007305  00000+0  98519-3 0  9999
2 63727  51.9042 288.1464 0010307 338.1931  21.8591 14.79951499 41144
KUIPER-00012            
1 63728U 25088E   26023.95430848  .00007392  00000+0  10731-2 0  9997
2 63728  51.9015 272.8138 0008196 344.4982  15.5727 14.76800023 41304
KUIPER-00013            
1 63729U 25088F   26024.07696440 -.00001603  00000+0 -18165-3 0  9995
2 63729  51.9018 305.3677 0003281 247.1054 112.9562 14.79840877 40961
KUIPER-00014            
1 63730U 25088G   26023.19639766  .00004923  00000+0  67161-3 0  9993
2 63730  51.9021 310.2214 0004690 326.3523  33.7141 14.80105490 40639
KUIPER-00015            
1 63731U 25088H   26023.78230856  .00010591  00000+0  13357-2 0  9991
2 63731  51.9005 317.9685 0008994 287.7818  72.2164 14.82374219 41033
