<?xml version="1.0" encoding="UTF-8"?>
<ndm xmlns:xsi="http://www.w3.org/2001/XMLSchema-instance" xsi:noNamespaceSchemaLocation="https://sanaregistry.org/r/ndmxml_unqualified/ndmxml-2.0.0-master-2.0.xsd">
<omm id="CCSDS_OMM_VERS" version="2.0">
<header><CREATION_DATE/><ORIGINATOR/></header><body><segment><metadata><OBJECT_NAME>KUIPER-00008</OBJECT_NAME><OBJECT_ID>2025-088A</OBJECT_ID><CENTER_NAME>EARTH</CENTER_NAME><REF_FRAME>TEME</REF_FRAME><TIME_SYSTEM>UTC</TIME_SYSTEM><MEAN_ELEMENT_THEORY>SGP4</MEAN_ELEMENT_THEORY></metadata><data><meanElements><EPOCH>2026-01-23T10:43:47.305920</EPOCH><MEAN_MOTION>14.99147191</MEAN_MOTION><ECCENTRICITY>.00074764</ECCENTRICITY><INCLINATION>51.8903</INCLINATION><RA_OF_ASC_NODE>293.2071</RA_OF_ASC_NODE><ARG_OF_PERICENTER>309.6954</ARG_OF_PERICENTER><MEAN_ANOMALY>50.3357</MEAN_ANOMALY></meanElements><tleParameters><EPHEMERIS_TYPE>0</EPHEMERIS_TYPE><CLASSIFICATION_TYPE>U</CLASSIFICATION_TYPE><NORAD_CAT_ID>63724</NORAD_CAT_ID><ELEMENT_SET_NO>999</ELEMENT_SET_NO><REV_AT_EPOCH>4127</REV_AT_EPOCH><BSTAR>.8284289E-3</BSTAR><MEAN_MOTION_DOT>.9942E-4</MEAN_MOTION_DOT><MEAN_MOTION_DDOT>0</MEAN_MOTION_DDOT></tleParameters></data></segment></body></omm>
<omm id="CCSDS_OMM_VERS" version="2.0">
<header><CREATION_DATE/><ORIGINATOR/></header><body><segment><metadata><OBJECT_NAME>KUIPER-00009</OBJECT_NAME><OBJECT_ID>2025-088B</OBJECT_ID><CENTER_NAME>EARTH</CENTER_NAME><REF_FRAME>TEME</REF_FRAME><TIME_SYSTEM>UTC</TIME_SYSTEM><MEAN_ELEMENT_THEORY>SGP4</MEAN_ELEMENT_THEORY></metadata><data><meanElements><EPOCH>2026-01-24T01:52:50.542464</EPOCH><MEAN_MOTION>14.79975722</MEAN_MOTION><ECCENTRICITY>.0009787</ECCENTRICITY><INCLINATION>51.9030</INCLINATION><RA_OF_ASC_NODE>303.9030</RA_OF_ASC_NODE><ARG_OF_PERICENTER>315.6960</ARG_OF_PERICENTER><MEAN_ANOMALY>44.3218</MEAN_ANOMALY></meanElements><tleParameters><EPHEMERIS_TYPE>0</EPHEMERIS_TYPE><CLASSIFICATION_TYPE>U</CLASSIFICATION_TYPE><NORAD_CAT_ID>63725</NORAD_CAT_ID><ELEMENT_SET_NO>999</ELEMENT_SET_NO><REV_AT_EPOCH>4117</REV_AT_EPOCH><BSTAR>.1499E-2</BSTAR><MEAN_MOTION_DOT>.11243E-3</MEAN_MOTION_DOT><MEAN_MOTION_DDOT>0</MEAN_MOTION_DDOT></tleParameters></data></segment></body></omm>
<omm id="CCSDS_OMM_VERS" version="2.0">
<header><CREATION_DATE/><ORIGINATOR/></header><body><segment><metadata><OBJECT_NAME>KUIPER-00010</OBJECT_NAME><OBJECT_ID>2025-088C</OBJECT_ID><CENTER_NAME>EARTH</CENTER_NAME><REF_FRAME>TEME</REF_FRAME><TIME_SYSTEM>UTC</TIME_SYSTEM><MEAN_ELEMENT_THEORY>SGP4</MEAN_ELEMENT_THEORY></metadata><data><meanElements><EPOCH>2026-01-24T00:04:02.661312</EPOCH><MEAN_MOTION>14.79885212</MEAN_MOTION><ECCENTRICITY>.0000469</ECCENTRICITY><INCLINATION>51.9002</INCLINATION><RA_OF_ASC_NODE>280.6940</RA_OF_ASC_NODE><ARG_OF_PERICENTER>88.2695</ARG_OF_PERICENTER><MEAN_ANOMALY>271.8321</MEAN_ANOMALY></meanElements><tleParameters><EPHEMERIS_TYPE>0</EPHEMERIS_TYPE><CLASSIFICATION_TYPE>U</CLASSIFICATION_TYPE><NORAD_CAT_ID>63726</NORAD_CAT_ID><ELEMENT_SET_NO>999</ELEMENT_SET_NO><REV_AT_EPOCH>4111</REV_AT_EPOCH><BSTAR>.39444E-3</BSTAR><MEAN_MOTION_DOT>.2784E-4</MEAN_MOTION_DOT><MEAN_MOTION_DDOT>0</MEAN_MOTION_DDOT></tleParameters></data></segment></body></omm>
<omm id="CCSDS_OMM_VERS" version="2.0">
<header><CREATION_DATE/><ORIGINATOR/></header><body><segment><metadata><OBJECT_NAME>KUIPER-00011</OBJECT_NAME><OBJECT_ID>2025-088D</OBJECT_ID><CENTER_NAME>EARTH</CENTER_NAME><REF_FRAME>TEME</REF_FRAME><TIME_SYSTEM>UTC</TIME_SYSTEM><MEAN_ELEMENT_THEORY>SGP4</MEAN_ELEMENT_THEORY></metadata><data><meanElements><EPOCH>2026-01-24T00:40:57.038016</EPOCH><MEAN_MOTION>14.79951499</MEAN_MOTION><ECCENTRICITY>.0010307</ECCENTRICITY><INCLINATION>51.9042</INCLINATION><RA_OF_ASC_NODE>288.1464</RA_OF_ASC_NODE><ARG_OF_PERICENTER>338.1931</ARG_OF_PERICENTER><MEAN_ANOMALY>21.8591</MEAN_ANOMALY></meanElements><tleParameters><EPHEMERIS_TYPE>0</EPHEMERIS_TYPE><CLASSIFICATION_TYPE>U</CLASSIFICATION_TYPE><NORAD_CAT_ID>63727</NORAD_CAT_ID><ELEMENT_SET_NO>999</ELEMENT_SET_NO><REV_AT_EPOCH>4114</REV_AT_EPOCH><BSTAR>.98519E-3</BSTAR><MEAN_MOTION_DOT>.7305E-4</MEAN_MOTION_DOT><MEAN_MOTION_DDOT>0</MEAN_MOTION_DDOT></tleParameters></data></segment></body></omm>
<omm id="CCSDS_OMM_VERS" version="2.0">
<header><CREATION_DATE/><ORIGINATOR/></header><body><segment><metadata><OBJECT_NAME>KUIPER-00012</OBJECT_NAME><OBJECT_ID>2025-088E</OBJECT_ID><CENTER_NAME>EARTH</CENTER_NAME><REF_FRAME>TEME</REF_FRAME><TIME_SYSTEM>UTC</TIME_SYSTEM><MEAN_ELEMENT_THEORY>SGP4</MEAN_ELEMENT_THEORY></metadata><data><meanElements><EPOCH>2026-01-23T22:54:12.252672</EPOCH><MEAN_MOTION>14.76800023</MEAN_MOTION><ECCENTRICITY>.0008196</ECCENTRICITY><INCLINATION>51.9015</INCLINATION><RA_OF_ASC_NODE>272.8138</RA_OF_ASC_NODE><ARG_OF_PERICENTER>344.4982</ARG_OF_PERICENTER><MEAN_ANOMALY>15.5727</MEAN_ANOMALY></meanElements><tleParameters><EPHEMERIS_TYPE>0</EPHEMERIS_TYPE><CLASSIFICATION_TYPE>U</CLASSIFICATION_TYPE><NORAD_CAT_ID>63728</NORAD_CAT_ID><ELEMENT_SET_NO>999</ELEMENT_SET_NO><REV_AT_EPOCH>4130</REV_AT_EPOCH><BSTAR>.10731E-2</BSTAR><MEAN_MOTION_DOT>.7392E-4</MEAN_MOTION_DOT><MEAN_MOTION_DDOT>0</MEAN_MOTION_DDOT></tleParameters></data></segment></body></omm>
<omm id="CCSDS_OMM_VERS" version="2.0">
<header><CREATION_DATE/><ORIGINATOR/></header><body><segment><metadata><OBJECT_NAME>KUIPER-00013</OBJECT_NAME><OBJECT_ID>2025-088F</OBJECT_ID><CENTER_NAME>EARTH</CENTER_NAME><REF_FRAME>TEME</REF_FRAME><TIME_SYSTEM>UTC</TIME_SYSTEM><MEAN_ELEMENT_THEORY>SGP4</MEAN_ELEMENT_THEORY></metadata><data><meanElements><EPOCH>2026-01-24T01:50:49.723296</EPOCH><MEAN_MOTION>14.79840877</MEAN_MOTION><ECCENTRICITY>.0003282</ECCENTRICITY><INCLINATION>51.9018</INCLINATION><RA_OF_ASC_NODE>305.3677</RA_OF_ASC_NODE><ARG_OF_PERICENTER>247.1054</ARG_OF_PERICENTER><MEAN_ANOMALY>112.9562</MEAN_ANOMALY></meanElements><tleParameters><EPHEMERIS_TYPE>0</EPHEMERIS_TYPE><CLASSIFICATION_TYPE>U</CLASSIFICATION_TYPE><NORAD_CAT_ID>63729</NORAD_CAT_ID><ELEMENT_SET_NO>999</ELEMENT_SET_NO><REV_AT_EPOCH>4096</REV_AT_EPOCH><BSTAR>-.18165E-3</BSTAR><MEAN_MOTION_DOT>-.1603E-4</MEAN_MOTION_DOT><MEAN_MOTION_DDOT>0</MEAN_MOTION_DDOT></tleParameters></data></segment></body></omm>
<omm id="CCSDS_OMM_VERS" version="2.0">
<header><CREATION_DATE/><ORIGINATOR/></header><body><segment><metadata><OBJECT_NAME>KUIPER-00014</OBJECT_NAME><OBJECT_ID>2025-088G</OBJECT_ID><CENTER_NAME>EARTH</CENTER_NAME><REF_FRAME>TEME</REF_FRAME><TIME_SYSTEM>UTC</TIME_SYSTEM><MEAN_ELEMENT_THEORY>SGP4</MEAN_ELEMENT_THEORY></metadata><data><meanElements><EPOCH>2026-01-23T04:42:48.757824</EPOCH><MEAN_MOTION>14.80105490</MEAN_MOTION><ECCENTRICITY>.00046908</ECCENTRICITY><INCLINATION>51.9021</INCLINATION><RA_OF_ASC_NODE>310.2214</RA_OF_ASC_NODE><ARG_OF_PERICENTER>326.3523</ARG_OF_PERICENTER><MEAN_ANOMALY>33.7141</MEAN_ANOMALY></meanElements><tleParameters><EPHEMERIS_TYPE>0</EPHEMERIS_TYPE><CLASSIFICATION_TYPE>U</CLASSIFICATION_TYPE><NORAD_CAT_ID>63730</NORAD_CAT_ID><ELEMENT_SET_NO>999</ELEMENT_SET_NO><REV_AT_EPOCH>4063</REV_AT_EPOCH><BSTAR>.67161453E-3</BSTAR><MEAN_MOTION_DOT>.4923E-4</MEAN_MOTION_DOT><MEAN_MOTION_DDOT>0</MEAN_MOTION_DDOT></tleParameters></data></segment></body></omm>
<omm id="CCSDS_OMM_VERS" version="2.0">
<header><CREATION_DATE/><ORIGINATOR/></header><body><segment><metadata><OBJECT_NAME>KUIPER-00015</OBJECT_NAME><OBJECT_ID>2025-088H</OBJECT_ID><CENTER_NAME>EARTH</CENTER_NAME><REF_FRAME>TEME</REF_FRAME><TIME_SYSTEM>UTC</TIME_SYSTEM><MEAN_ELEMENT_THEORY>SGP4</MEAN_ELEMENT_THEORY></metadata><data><meanElements><EPOCH>2026-01-23T18:46:31.459584</EPOCH><MEAN_MOTION>14.82374219</MEAN_MOTION><ECCENTRICITY>.00089947</ECCENTRICITY><INCLINATION>51.9005</INCLINATION><RA_OF_ASC_NODE>317.9685</RA_OF_ASC_NODE><ARG_OF_PERICENTER>287.7818</ARG_OF_PERICENTER><MEAN_ANOMALY>72.2164</MEAN_ANOMALY></meanElements><tleParameters><EPHEMERIS_TYPE>0</EPHEMERIS_TYPE><CLASSIFICATION_TYPE>U</CLASSIFICATION_TYPE><NORAD_CAT_ID>63731</NORAD_CAT_ID><ELEMENT_SET_NO>999</ELEMENT_SET_NO><REV_AT_EPOCH>4103</REV_AT_EPOCH><BSTAR>.13357209E-2</BSTAR><MEAN_MOTION_DOT>.10591E-3</MEAN_MOTION_DOT><MEAN_MOTION_DDOT>0</MEAN_MOTION_DDOT></tleParameters></data></segment></body></omm>

</ndm>
